{"type": "FeatureCollection", "features": [ {"type": "Feature", "properties": {"norad_id": 30829, "name": "FENGYUN 1C DEB", "group": "fengyun-1c-debris", "lat": 50.803627934194616, "lon": -23.701464026333916, "alt_km": 863.5240943674289, "timestamp": "2025-12-20T18:51:31.993058+00:00", "meta": {"OBJECT_NAME": "FENGYUN 1C DEB", "OBJECT_ID": "1999-025AVP", "EPOCH": "2025-12-17T05:22:50.536992", "MEAN_MOTION": 14.08660989, "ECCENTRICITY": 0.00353029, "INCLINATION": 98.7772, "RA_OF_ASC_NODE": 343.7533, "ARG_OF_PERICENTER": 321.8624, "MEAN_ANOMALY": 38.0048, "EPHEMERIS_TYPE": 0, "CLASSIFICATION_TYPE": "U", "NORAD_CAT_ID": 30829, "ELEMENT_SET_NO": 999, "REV_AT_EPOCH": 96496, "BSTAR": 0.00035091646, "MEAN_MOTION_DOT": 5.64e-06, "MEAN_MOTION_DDOT": 0}, "tle": {"line1": "1 30829U 99025AVP 25351.22419603  .00000564  00000+0  35092-3 0  9996", "line2": "2 30829  98.7772 343.7533 0035302 321.8624  38.0048 14.08660989964969"}}, "geometry": {"type": "Point", "coordinates": [-23.701464026333916, 50.803627934194616]}}, {"type": "Feature", "properties": {"norad_id": 30830, "name": "FENGYUN 1C DEB", "group": "fengyun-1c-debris", "lat": 7.510512354584955, "lon": -18.1852636602329, "alt_km": 874.4163755535646, "timestamp": "2025-12-20T18:51:31.993068+00:00", "meta": {"OBJECT_NAME": "FENGYUN 1C DEB", "OBJECT_ID": "1999-025AVQ", "EPOCH": "2025-12-19T19:35:02.056128", "MEAN_MOTION": 14.1223591, "ECCENTRICITY": 0.00310336, "INCLINATION": 98.7296, "RA_OF_ASC_NODE": 342.0311, "ARG_OF_PERICENTER": 168.5887, "MEAN_ANOMALY": 311.548, "EPHEMERIS_TYPE": 0, "CLASSIFICATION_TYPE": "U", "NORAD_CAT_ID": 30830, "ELEMENT_SET_NO": 999, "REV_AT_EPOCH": 96699, "BSTAR": 0.0001833696, "MEAN_MOTION_DOT": 2.96e-06, "MEAN_MOTION_DDOT": 0}, "tle": {"line1": "1 30830U 99025AVQ 25353.81599602  .00000296  00000+0  18337-3 0  9998", "line2": "2 30830  98.7296 342.0311 0031033 168.5887 311.5480 14.12235910966993"}}, "geometry": {"type": "Point", "coordinates": [-18.1852636602329, 7.510512354584955]}}, {"type": "Feature", "properties": {"norad_id": 30831, "name": "FENGYUN 1C DEB", "group": "fengyun-1c-debris", "lat": 36.425196909267726, "lon": 141.16892711865688, "alt_km": 749.7896974598807, "timestamp": "2025-12-20T18:51:31.993079+00:00", "meta": {"OBJECT_NAME": "FENGYUN 1C DEB", "OBJECT_ID": "1999-025AVR", "EPOCH": "2025-12-19T04:05:43.603584", "MEAN_MOTION": 14.31100887, "ECCENTRICITY": 0.00553007, "INCLINATION": 99.3283, "RA_OF_ASC_NODE": 146.4032, "ARG_OF_PERICENTER": 15.6425, "MEAN_ANOMALY": 344.6449, "EPHEMERIS_TYPE": 0, "CLASSIFICATION_TYPE": "U", "NORAD_CAT_ID": 30831, "ELEMENT_SET_NO": 999, "REV_AT_EPOCH": 65342, "BSTAR": 0.00031120518, "MEAN_MOTION_DOT": 7.84e-06, "MEAN_MOTION_DDOT": 0}, "tle": {"line1": "1 30831U 99025AVR 25353.17064356  .00000784  00000+0  31121-3 0  9999", "line2": "2 30831  99.3283 146.4032 0055300  15.6425 344.6449 14.31100887653424"}}, "geometry": {"type": "Point", "coordinates": [141.16892711865688, 36.425196909267726]}}, {"type": "Feature", "properties": {"norad_id": 30833, "name": "FENGYUN 1C DEB", "group": "fengyun-1c-debris", "lat": -66.33809551004994, "lon": 165.21075658384572, "alt_km": 825.9843301497467, "timestamp": "2025-12-20T18:51:31.993090+00:00", "meta": {"OBJECT_NAME": "FENGYUN 1C DEB", "OBJECT_ID": "1999-025AVT", "EPOCH": "2025-12-18T15:00:23.734080", "MEAN_MOTION": 14.26773716, "ECCENTRICITY": 0.00330966, "INCLINATION": 99.8446, "RA_OF_ASC_NODE": 139.4372, "ARG_OF_PERICENTER": 164.3233, "MEAN_ANOMALY": 195.8976, "EPHEMERIS_TYPE": 0, "CLASSIFICATION_TYPE": "U", "NORAD_CAT_ID": 30833, "ELEMENT_SET_NO": 999, "REV_AT_EPOCH": 64495, "BSTAR": 0.00044992158, "MEAN_MOTION_DOT": 1.042e-05, "MEAN_MOTION_DDOT": 0}, "tle": {"line1": "1 30833U 99025AVT 25352.62527470  .00001042  00000+0  44992-3 0  9999", "line2": "2 30833  99.8446 139.4372 0033096 164.3233 195.8976 14.26773716644958"}}, "geometry": {"type": "Point", "coordinates": [165.21075658384572, -66.33809551004994]}}, {"type": "Feature", "properties": {"norad_id": 30836, "name": "FENGYUN 1C DEB", "group": "fengyun-1c-debris", "lat": 11.63535047499825, "lon": 25.43116954246671, "alt_km": 870.2632320344628, "timestamp": "2025-12-20T18:51:31.993100+00:00", "meta": {"OBJECT_NAME": "FENGYUN 1C DEB", "OBJECT_ID": "1999-025AVW", "EPOCH": "2025-12-17T21:04:21.892224", "MEAN_MOTION": 14.1194105, "ECCENTRICITY": 0.00258656, "INCLINATION": 98.7444, "RA_OF_ASC_NODE": 24.4125, "ARG_OF_PERICENTER": 229.6421, "MEAN_ANOMALY": 130.2492, "EPHEMERIS_TYPE": 0, "CLASSIFICATION_TYPE": "U", "NORAD_CAT_ID": 30836, "ELEMENT_SET_NO": 999, "REV_AT_EPOCH": 62076, "BSTAR": 0.00033363264, "MEAN_MOTION_DOT": 5.69e-06, "MEAN_MOTION_DDOT": 0}, "tle": {"line1": "1 30836U 99025AVW 25351.87803116  .00000569  00000+0  33363-3 0  9995", "line2": "2 30836  98.7444  24.4125 0025865 229.6421 130.2492 14.11941050620766"}}, "geometry": {"type": "Point", "coordinates": [25.43116954246671, 11.63535047499825]}}, {"type": "Feature", "properties": {"norad_id": 30837, "name": "FENGYUN 1C DEB", "group": "fengyun-1c-debris", "lat": 49.29850752433493, "lon": 171.024041639434, "alt_km": 816.7081214416512, "timestamp": "2025-12-20T18:51:31.993109+00:00", "meta": {"OBJECT_NAME": "FENGYUN 1C DEB", "OBJECT_ID": "1999-025AVX", "EPOCH": "2025-12-19T10:42:32.880096", "MEAN_MOTION": 14.14529792, "ECCENTRICITY": 0.0033199, "INCLINATION": 98.679, "RA_OF_ASC_NODE": 339.4939, "ARG_OF_PERICENTER": 114.7059, "MEAN_ANOMALY": 37.3307, "EPHEMERIS_TYPE": 0, "CLASSIFICATION_TYPE": "U", "NORAD_CAT_ID": 30837, "ELEMENT_SET_NO": 999, "REV_AT_EPOCH": 96913, "BSTAR": 0.00024687, "MEAN_MOTION_DOT": 4.34e-06, "MEAN_MOTION_DDOT": 0}, "tle": {"line1": "1 30837U 99025AVX 25353.44621389  .00000434  00000+0  24687-3 0  9991", "line2": "2 30837  98.6790 339.4939 0033199 114.7059  37.3307 14.14529792969139"}}, "geometry": {"type": "Point", "coordinates": [171.024041639434, 49.29850752433493]}}, {"type": "Feature", "properties": {"norad_id": 30838, "name": "FENGYUN 1C DEB", "group": "fengyun-1c-debris", "lat": 17.89419679643983, "lon": -93.73793542028477, "alt_km": 743.2404897408651, "timestamp": "2025-12-20T18:51:31.993119+00:00", "meta": {"OBJECT_NAME": "FENGYUN 1C DEB", "OBJECT_ID": "1999-025AVY", "EPOCH": "2025-12-18T23:39:06.887232", "MEAN_MOTION": 14.47838526, "ECCENTRICITY": 0.00345739, "INCLINATION": 99.0434, "RA_OF_ASC_NODE": 267.2856, "ARG_OF_PERICENTER": 138.4243, "MEAN_ANOMALY": 221.9587, "EPHEMERIS_TYPE": 0, "CLASSIFICATION_TYPE": "U", "NORAD_CAT_ID": 30838, "ELEMENT_SET_NO": 999, "REV_AT_EPOCH": 97404, "BSTAR": 0.0017808523, "MEAN_MOTION_DOT": 6.596e-05, "MEAN_MOTION_DDOT": 0}, "tle": {"line1": "1 30838U 99025AVY 25352.98549638  .00006596  00000+0  17809-2 0  9998", "line2": "2 30838  99.0434 267.2856 0034573 138.4243 221.9587 14.47838526974042"}}, "geometry": {"type": "Point", "coordinates": [-93.73793542028477, 17.89419679643983]}}, {"type": "Feature", "properties": {"norad_id": 30840, "name": "FENGYUN 1C DEB", "group": "fengyun-1c-debris", "lat": 11.179711232240457, "lon": -172.50910424879572, "alt_km": 843.9127030643549, "timestamp": "2025-12-20T18:51:31.993129+00:00", "meta": {"OBJECT_NAME": "FENGYUN 1C DEB", "OBJECT_ID": "1999-025AWA", "EPOCH": "2025-12-20T11:30:44.945568", "MEAN_MOTION": 14.61177995, "ECCENTRICITY": 0.02169789, "INCLINATION": 98.0222, "RA_OF_ASC_NODE": 5.5967, "ARG_OF_PERICENTER": 346.3132, "MEAN_ANOMALY": 13.2243, "EPHEMERIS_TYPE": 0, "CLASSIFICATION_TYPE": "U", "NORAD_CAT_ID": 30840, "ELEMENT_SET_NO": 999, "REV_AT_EPOCH": 73244, "BSTAR": 0.00054128682, "MEAN_MOTION_DOT": 3.669e-05, "MEAN_MOTION_DDOT": 0}, "tle": {"line1": "1 30840U 99025AWA 25354.47968687  .00003669  00000+0  54129-3 0  9991", "line2": "2 30840  98.0222   5.5967 0216978 346.3132  13.2243 14.61177995732442"}}, "geometry": {"type": "Point", "coordinates": [-172.50910424879572, 11.179711232240457]}}, {"type": "Feature", "properties": {"norad_id": 30843, "name": "FENGYUN 1C DEB", "group": "fengyun-1c-debris", "lat": 71.55821651407561, "lon": -85.33281037084649, "alt_km": 606.7120262908611, "timestamp": "2025-12-20T18:51:31.993139+00:00", "meta": {"OBJECT_NAME": "FENGYUN 1C DEB", "OBJECT_ID": "1999-025AWD", "EPOCH": "2025-12-19T10:58:05.606976", "MEAN_MOTION": 14.52485702, "ECCENTRICITY": 0.0148958, "INCLINATION": 98.8417, "RA_OF_ASC_NODE": 65.4419, "ARG_OF_PERICENTER": 99.4185, "MEAN_ANOMALY": 262.3883, "EPHEMERIS_TYPE": 0, "CLASSIFICATION_TYPE": "U", "NORAD_CAT_ID": 30843, "ELEMENT_SET_NO": 999, "REV_AT_EPOCH": 99422, "BSTAR": 0.00010692, "MEAN_MOTION_DOT": 4.47e-06, "MEAN_MOTION_DDOT": 0}, "tle": {"line1": "1 30843U 99025AWD 25353.45700934  .00000447  00000+0  10692-3 0  9998", "line2": "2 30843  98.8417  65.4419 0148958  99.4185 262.3883 14.52485702994223"}}, "geometry": {"type": "Point", "coordinates": [-85.33281037084649, 71.55821651407561]}}, {"type": "Feature", "properties": {"norad_id": 30845, "name": "FENGYUN 1C DEB", "group": "fengyun-1c-debris", "lat": 6.790319295147819, "lon": -6.589555373961139, "alt_km": 1041.94758424239, "timestamp": "2025-12-20T18:51:31.993149+00:00", "meta": {"OBJECT_NAME": "FENGYUN 1C DEB", "OBJECT_ID": "1999-025AWF", "EPOCH": "2025-12-18T06:06:02.257056", "MEAN_MOTION": 13.76862309, "ECCENTRICITY": 0.01920684, "INCLINATION": 98.3793, "RA_OF_ASC_NODE": 352.1834, "ARG_OF_PERICENTER": 255.4683, "MEAN_ANOMALY": 168.0422, "EPHEMERIS_TYPE": 0, "CLASSIFICATION_TYPE": "U", "NORAD_CAT_ID": 30845, "ELEMENT_SET_NO": 999, "REV_AT_EPOCH": 94319, "BSTAR": 0.0003057804, "MEAN_MOTION_DOT": 3.07e-06, "MEAN_MOTION_DDOT": 0}, "tle": {"line1": "1 30845U 99025AWF 25352.25419279  .00000307  00000+0  30578-3 0  9996", "line2": "2 30845  98.3793 352.1834 0192068 255.4683 168.0422 13.76862309943190"}}, "geometry": {"type": "Point", "coordinates": [-6.589555373961139, 6.790319295147819]}}]}